OCEANSAT-2              
1 35931U 09051A   26193.21967170 -.00000140  00000+0 -69744-4 0  9990
2 35931  98.2318 177.5720 0017149 162.0956 198.0819 13.99656419882832
WORLDVIEW-2 (WV-2)      
1 35946U 09055A   26193.21471985  .00000032  00000+0  24975-4 0  9999
2 35946  98.4757 266.3235 0005187 137.0579 223.1014 14.37906430879249
SMOS                    
1 36036U 09059A   26192.99952471  .00000159  00000+0  64693-4 0  9993
2 36036  98.4426  19.9708 0001133  95.5733 264.5585 14.39734900877026
YAOGAN-7                
1 36110U 09069A   26193.13735877  .00000221  00000+0  37818-4 0  9992
2 36110  98.0039  78.8467 0023690 321.6496  38.3029 14.78033793893317
TANDEM-X                
1 36605U 10030A   26188.47915494  .00000386  00000+0  21566-4 0  9992
2 36605  97.4457 195.8973 0001887  94.3019 265.8431 15.19154052889726
CARTOSAT-2B             
1 36795U 10035A   26193.17487425  .00000573  00000+0  85297-4 0  9997
2 36795  97.9946 243.5628 0012538 107.9716 252.2862 14.78615851863545
YAOGAN-10               
1 36834U 10038A   26193.21352977  .00000503  00000+0  64703-4 0  9994
2 36834  97.8976 216.4181 0001611  82.5906   6.0136 14.85421689860923
COSMO-SKYMED 4          
1 37216U 10060A   26193.15259068  .00000489  00000+0  67985-4 0  9992
2 37216  97.8894  16.3915 0001530  83.4209 276.7178 14.82148592848266
RESOURCESAT-2           
1 37387U 11015A   26193.14529837  .00000010  00000+0  24924-4 0  9991
2 37387  98.7633 260.4133 0011416 179.6595 180.4592 14.21605413789729
HAIYANG-2A              
1 37781U 11043A   26193.23410376  .00000071  00000+0  12293-3 0  9999
2 37781  99.3400 195.3387 0002872  38.3503 321.7849 13.73481480750094
RASAT                   
1 37791U 11044D   26193.25040793  .00000392  00000+0  76370-4 0  9998
2 37791  98.0579 284.2650 0021841 111.4892 272.1606 14.68191522796865
SRMSAT                  
1 37841U 11058D   26193.23869166  .00000350  00000+0  45879-4 0  9994
2 37841  19.9714 267.8421 0011854 118.8974 271.3920 14.11580711761369
PLEIADES 1A             
1 38012U 11076F   26193.16973605  .00000040  00000+0  18483-4 0  9998
2 38012  98.1973 267.9357 0001707  82.3313   1.9521 14.58545645775630
ZIYUAN 1-02C (ZY 1-02C) 
1 38038U 11079A   26193.19647956 -.00000002  00000+0  13436-4 0  9991
2 38038  98.4066 259.9811 0005455 224.9590 227.9604 14.38233450762808
ARIRANG-3 (KOMPSAT-3)   
1 38338U 12025B   26193.14654322  .00000211  00000+0  51202-4 0  9990
2 38338  98.1183 150.1779 0006394  46.8854 313.2881 14.62227527754992
EXACTVIEW-1 (ADS-1B)    
1 38709U 12039C   26192.81623572  .00000040  00000+0  36711-4 0  9991
2 38709  98.9800 310.7657 0011949 100.3654 259.8872 14.24991670726217
SPOT 6                  
1 38755U 12047A   26193.16905713 -.00000024  00000+0  45998-5 0  9991
2 38755  98.2114 260.1839 0001124  83.2537 276.8790 14.58537456736698
PLEIADES 1B             
1 39019U 12068A   26193.18764302 -.00000039  00000+0  14835-5 0  9999
2 39019  98.1944 267.8940 0001613  79.7967 280.3414 14.58532926724494
GOKTURK 2               
1 39030U 12073A   26193.17140446  .00000245  00000+0  42843-4 0  9991
2 39030  97.6817  29.3499 0000899  84.9602 275.1711 14.75566092728192
LANDSAT 8               
1 39084U 13008A   26193.15793233  .00000149  00000+0  43064-4 0  9994
2 39084  98.2291 262.9953 0001327  94.1690 265.9660 14.57110601701531
SARAL                   
1 39086U 13009A   26193.17968410  .00000052  00000+0  35128-4 0  9995
2 39086  98.5554  19.4308 0001520 174.4570 185.6631 14.32895309699182
GAOFEN-1                
1 39150U 13018A   26193.20482139 -.00000263  00000+0 -30365-4 0  9994
2 39150  97.9091 264.7629 0016818 180.7435 179.3753 14.76515034711935
VNREDSAT 1              
1 39160U 13021B   26193.15749289  .00000036  00000+0  15117-4 0  9999
2 39160  97.9073 245.6137 0001625  81.0339 279.1049 14.64881217703949
ARIRANG-5 (KOMPSAT-5)   
1 39227U 13042A   26193.17315473  .00000668  00000+0  52035-4 0  9993
2 39227  97.6216  19.5231 0005601  66.5614 293.6200 15.04522200707611
SKYSAT-A                
1 39418U 13066C   26192.92535079  .00001480  00000+0  86826-4 0  9997
2 39418  97.3805 241.5341 0020184 225.2191 134.7400 15.13105178692228
DUBAISAT-2              
1 39419U 13066D   26193.18144461  .00003314  00000+0  20561-3 0  9999
2 39419  97.4571 182.6748 0009742 314.4907  45.5526 15.10363958690167
GPM-CORE                
1 39574U 14009C   26193.13331075  .00003362  00000+0  76238-4 0  9999
2 39574  64.9696 224.5485 0011009 261.0664  98.9231 15.45020357701660
SENTINEL-1A             
1 39634U 14016A   26193.19033234  .00000137  00000+0  38759-4 0  9999
2 39634  98.1785 200.3582 0001458  86.8061 273.3305 14.59200432653661
KAZEOSAT 1              
1 39731U 14024A   26193.13914391 -.00000114  00000+0 -21640-4 0  9990
2 39731  98.3202 264.9643 0001242  82.9599 277.1732 14.42036063642150
ALOS-2                  
1 39766U 14029A   26193.23095904  .00001134  00000+0  15874-3 0  9996
2 39766  97.9226 290.0366 0001586  94.5560 265.5833 14.79469947655281
KAZEOSAT 2              
1 40010U 14033A   26193.15312738 -.00000137  00000+0 -10084-4 0  9996
2 40010  97.5402  31.4452 0007223 231.5235 128.5334 14.85495933652660
