OBJECT_NAME,OBJECT_ID,EPOCH,MEAN_MOTION,ECCENTRICITY,INCLINATION,RA_OF_ASC_NODE,ARG_OF_PERICENTER,MEAN_ANOMALY,EPHEMERIS_TYPE,CLASSIFICATION_TYPE,NORAD_CAT_ID,ELEMENT_SET_NO,REV_AT_EPOCH,BSTAR,MEAN_MOTION_DOT,MEAN_MOTION_DDOT
OCEANSAT-2,2009-051A,2026-07-12T05:16:19.634880,13.99656419,.0017149,98.2318,177.5720,162.0956,198.0819,0,U,35931,999,88283,-.69744E-4,-.14E-5,0
WORLDVIEW-2 (WV-2),2009-055A,2026-07-12T05:09:11.795040,14.37906430,.0005187,98.4757,266.3235,137.0579,223.1014,0,U,35946,999,87924,.24975E-4,.32E-6,0
SMOS,2009-059A,2026-07-11T23:59:18.934944,14.39734900,.0001133,98.4426,19.9708,95.5733,264.5585,0,U,36036,999,87702,.64693E-4,.159E-5,0
YAOGAN-7,2009-069A,2026-07-12T03:17:47.797728,14.78033793,.002369,98.0039,78.8467,321.6496,38.3029,0,U,36110,999,89331,.37818E-4,.221E-5,0
TANDEM-X,2010-030A,2026-07-07T11:29:58.986816,15.19154052,.0001887,97.4457,195.8973,94.3019,265.8431,0,U,36605,999,88972,.21566E-4,.386E-5,0
CARTOSAT-2B,2010-035A,2026-07-12T04:11:49.135200,14.78615851,.0012538,97.9946,243.5628,107.9716,252.2862,0,U,36795,999,86354,.85297E-4,.573E-5,0
YAOGAN-10,2010-038A,2026-07-12T05:07:28.972128,14.85421689,.0001611,97.8976,216.4181,82.5906,6.0136,0,U,36834,999,86092,.64703E-4,.503E-5,0
COSMO-SKYMED 4,2010-060A,2026-07-12T03:39:43.834752,14.82148592,.000153,97.8894,16.3915,83.4209,276.7178,0,U,37216,999,84826,.67985E-4,.489E-5,0
RESOURCESAT-2,2011-015A,2026-07-12T03:29:13.779168,14.21605413,.0011416,98.7633,260.4133,179.6595,180.4592,0,U,37387,999,78972,.24924E-4,.1E-6,0
HAIYANG-2A,2011-043A,2026-07-12T05:37:06.564864,13.73481480,.0002872,99.3400,195.3387,38.3503,321.7849,0,U,37781,999,75009,.12293E-3,.71E-6,0
RASAT,2011-044D,2026-07-12T06:00:35.245152,14.68191522,.0021841,98.0579,284.2650,111.4892,272.1606,0,U,37791,999,79686,.7637E-4,.392E-5,0
SRMSAT,2011-058D,2026-07-12T05:43:42.959424,14.11580711,.0011854,19.9714,267.8421,118.8974,271.3920,0,U,37841,999,76136,.45879E-4,.35E-5,0
PLEIADES 1A,2011-076F,2026-07-12T04:04:25.194720,14.58545645,.0001707,98.1973,267.9357,82.3313,1.9521,0,U,38012,999,77563,.18483E-4,.4E-6,0
ZIYUAN 1-02C (ZY 1-02C),2011-079A,2026-07-12T04:42:55.833984,14.38233450,.0005455,98.4066,259.9811,224.9590,227.9604,0,U,38038,999,76280,.13436E-4,-.2E-7,0
ARIRANG-3 (KOMPSAT-3),2012-025B,2026-07-12T03:31:01.334208,14.62227527,.0006394,98.1183,150.1779,46.8854,313.2881,0,U,38338,999,75499,.51202E-4,.211E-5,0
EXACTVIEW-1 (ADS-1B),2012-039C,2026-07-11T19:35:22.766208,14.24991670,.00119494,98.9800,310.7657,100.3654,259.8872,0,U,38709,999,72621,.36710963E-4,.4E-6,0
SPOT 6,2012-047A,2026-07-12T04:03:26.536032,14.58537456,.0001124,98.2114,260.1839,83.2537,276.8790,0,U,38755,999,73669,.45998E-5,-.24E-6,0
PLEIADES 1B,2012-068A,2026-07-12T04:30:12.356928,14.58532926,.0001613,98.1944,267.8940,79.7967,280.3414,0,U,39019,999,72449,.14835E-5,-.39E-6,0
GOKTURK 2,2012-073A,2026-07-12T04:06:49.345344,14.75566092,.0000899,97.6817,29.3499,84.9602,275.1711,0,U,39030,999,72819,.42843E-4,.245E-5,0
LANDSAT 8,2013-008A,2026-07-12T03:47:25.353312,14.57110601,.0001327,98.2291,262.9953,94.1690,265.9660,0,U,39084,999,70153,.43064E-4,.149E-5,0
SARAL,2013-009A,2026-07-12T04:18:44.706240,14.32895309,.000152,98.5554,19.4308,174.4570,185.6631,0,U,39086,999,69918,.35128E-4,.52E-6,0
GAOFEN-1,2013-018A,2026-07-12T04:54:56.568096,14.76515034,.0016818,97.9091,264.7629,180.7435,179.3753,0,U,39150,999,71193,-.30365E-4,-.263E-5,0
VNREDSAT 1,2013-021B,2026-07-12T03:46:47.385696,14.64881217,.0001625,97.9073,245.6137,81.0339,279.1049,0,U,39160,999,70394,.15117E-4,.36E-6,0
ARIRANG-5 (KOMPSAT-5),2013-042A,2026-07-12T04:09:20.568672,15.04522200,.0005601,97.6216,19.5231,66.5614,293.6200,0,U,39227,999,70761,.52035E-4,.668E-5,0
SKYSAT-A,2013-066C,2026-07-11T22:12:30.308256,15.13105178,.0020184,97.3805,241.5341,225.2191,134.7400,0,U,39418,999,69222,.86826E-4,.148E-4,0
DUBAISAT-2,2013-066D,2026-07-12T04:21:16.814304,15.10363958,.0009742,97.4571,182.6748,314.4907,45.5526,0,U,39419,999,69016,.20561E-3,.3314E-4,0
GPM-CORE,2014-009C,2026-07-12T03:11:58.048800,15.45020357,.0011009,64.9696,224.5485,261.0664,98.9231,0,U,39574,999,70166,.76238E-4,.3362E-4,0
SENTINEL-1A,2014-016A,2026-07-12T04:34:04.714176,14.59200432,.0001458,98.1785,200.3582,86.8061,273.3305,0,U,39634,999,65366,.38759E-4,.137E-5,0
KAZEOSAT 1,2014-024A,2026-07-12T03:20:22.033824,14.42036063,.0001242,98.3202,264.9643,82.9599,277.1732,0,U,39731,999,64215,-.2164E-4,-.114E-5,0
ALOS-2,2014-029A,2026-07-12T05:32:34.861056,14.79469947,.0001586,97.9226,290.0366,94.5560,265.5833,0,U,39766,999,65528,.15874E-3,.1134E-4,0
KAZEOSAT 2,2014-033A,2026-07-12T03:40:30.205632,14.85495933,.0007223,97.5402,31.4452,231.5235,128.5334,0,U,40010,999,65266,-.10084E-4,-.137E-5,0
